[
    {
        "Altitude(m)": 622205.9042360833,
        "Argument of Periapsis(deg)": 0.0,
        "Eccentricity": 0.0,
        "Inclination(deg)": 60.0,
        "Latitude(deg)": -52.16253683207537,
        "Longitude(deg)": -72.29956312790249,
        "Mean Anomaly(deg)": -114.54550000000005,
        "RAAN(deg)": 160.0,
        "Satellite Name": "Test1 719",
        "Satellite Number": 719,
        "Semi-Major Axis(m)": 6980739.136638005,
        "Time(s)": 0
    },
    {
        "Altitude(m)": 622344.8104917916,
        "Argument of Periapsis(deg)": 0.00010418945913296404,
        "Eccentricity": 0.0,
        "Inclination(deg)": 60.0,
        "Latitude(deg)": -52.52011595830168,
        "Longitude(deg)": -71.51834842040793,
        "Mean Anomaly(deg)": -113.92539385453819,
        "RAAN(deg)": 159.99957995086024,
        "Satellite Name": "Test1 719",
        "Satellite Number": 719,
        "Semi-Major Axis(m)": 6980739.136638005,
        "Time(s)": 10
    }
]